{"difficult_run": {"type": "FeatureCollection", "features": [{"type": "Feature", "geometry": {"type": "Polygon", "coordinates": [[[-77.356686319, 38.847836762], [-77.360730555, 38.849175959], [-77.36566154, 38.854389486], [-77.363253627, 38.860338402], [-77.365501865, 38.862626312], [-77.364190601, 38.867731817], [-77.365378212, 38.871153248], [-77.369857023, 38.881834005], [-77.375642864, 38.885131341], [-77.380187199, 38.892474344], [-77.379413769, 38.89574098], [-77.381425445, 38.898389963], [-77.381162245, 38.901168227], [-77.383824963, 38.90381705], [-77.379597119, 38.907749926], [-77.380855133, 38.911312836], [-77.37952921, 38.91353293], [-77.377093715, 38.91404394], [-77.37818896, 38.916001337], [-77.371629733, 38.927575118], [-77.370934265, 38.932964281], [-77.36564011, 38.938853959], [-77.366080814, 38.941297063], [-77.355676233, 38.945105017], [-77.355969227, 38.953008098], [-77.353302799, 38.961117311], [-77.352447735, 38.972820791], [-77.34743417, 38.978577213], [-77.347337258, 38.982252995], [-77.34470156, 38.985733057], [-77.346121122, 38.992361292], [-77.343453045, 38.996543243], [-77.344838515, 38.99892886], [-77.343192763, 39.000203788], [-77.342128815, 39.008265145], [-77.331014311, 39.004389259], [-77.329704148, 38.998458543], [-77.317910374, 38.998571408], [-77.313657612, 38.997104183], [-77.312797868, 39.001200128], [-77.309787336, 39.001123712], [-77.308758459, 39.006253583], [-77.303342762, 39.007154542], [-77.297931432, 39.004915139], [-77.292814414, 38.999109371], [-77.284006891, 38.998554396], [-77.276079386, 38.990821432], [-77.273611109, 38.990717122], [-77.270618957, 38.987922653], [-77.267165349, 38.988094033], [-77.262203994, 38.984757205], [-77.257485268, 38.984184611], [-77.256537417, 38.982374157], [-77.248491081, 38.981597983], [-77.245911345, 38.979382978], [-77.242343496, 38.980589576], [-77.236794218, 38.976246595], [-77.231995954, 38.975340852], [-77.230804642, 38.973654855], [-77.232806755, 38.972791954], [-77.23466994, 38.967834615], [-77.23451781, 38.962341375], [-77.236041184, 38.961220653], [-77.237729902, 38.948891197], [-77.23014956, 38.945577619], [-77.23069858, 38.939383599], [-77.233741218, 38.934489954], [-77.231785929, 38.92893244], [-77.233235026, 38.925578383], [-77.227536059, 38.918523272], [-77.227780352, 38.915456828], [-77.220908821, 38.911404195], [-77.222675311, 38.903895674], [-77.225905208, 38.899517347], [-77.234816043, 38.89797021], [-77.243949015, 38.902223794], [-77.248096962, 38.898650079], [-77.252616391, 38.899069668], [-77.262954118, 38.892191837], [-77.2722634, 38.898140876], [-77.273831207, 38.897204845], [-77.277678185, 38.898539842], [-77.282263778, 38.894601513], [-77.282883301, 38.893332685], [-77.280478105, 38.890049873], [-77.2843996, 38.887164589], [-77.285817553, 38.883681998], [-77.303358999, 38.880432214], [-77.310103993, 38.873116502], [-77.315519235, 38.873484285], [-77.319654782, 38.868886863], [-77.322700219, 38.867758165], [-77.322636659, 38.864726203], [-77.324389705, 38.864248714], [-77.328802349, 38.856672319], [-77.332199298, 38.855835943], [-77.334894404, 38.851854209], [-77.33857489, 38.851380783], [-77.341423024, 38.844963059], [-77.347221933, 38.843434324], [-77.348660176, 38.84669924], [-77.351138012, 38.847969362], [-77.356686319, 38.847836762]]]}, "properties": {}, "id": 0}]}, "accotink_creek": {"type": "FeatureCollection", "features": [{"type": "Feature", "geometry": {"type": "Polygon", "coordinates": [[[-77.27929235, 38.843108219], [-77.284048709, 38.843372596], [-77.287979935, 38.83979826], [-77.292223004, 38.841266333], [-77.293623181, 38.839344067], [-77.299376075, 38.841397876], [-77.301722193, 38.838208712], [-77.307221149, 38.836254274], [-77.312238513, 38.83758735], [-77.312201809, 38.841046474], [-77.31574826, 38.840831544], [-77.320619356, 38.843136487], [-77.322820496, 38.848940484], [-77.334317349, 38.853157296], [-77.327530617, 38.857973816], [-77.324389705, 38.864248714], [-77.322636659, 38.864726203], [-77.322700219, 38.867758165], [-77.319654782, 38.868886863], [-77.315519235, 38.873484285], [-77.310103993, 38.873116502], [-77.303358999, 38.880432214], [-77.285817553, 38.883681998], [-77.2843996, 38.887164589], [-77.280478105, 38.890049873], [-77.282883301, 38.893332685], [-77.282263778, 38.894601513], [-77.277678185, 38.898539842], [-77.273831207, 38.897204845], [-77.2722634, 38.898140876], [-77.262954118, 38.892191837], [-77.252616391, 38.899069668], [-77.248096962, 38.898650079], [-77.243427132, 38.902176851], [-77.234816043, 38.89797021], [-77.232252899, 38.899349198], [-77.225559049, 38.89713549], [-77.228535974, 38.888119546], [-77.226154157, 38.882689267], [-77.225677687, 38.875906099], [-77.224172426, 38.875088595], [-77.22689882, 38.869309934], [-77.224795923, 38.866904704], [-77.226843355, 38.862980593], [-77.225225714, 38.856309054], [-77.207456455, 38.847805402], [-77.202827563, 38.847582208], [-77.199881746, 38.842300957], [-77.201757675, 38.840440784], [-77.197752208, 38.838961083], [-77.196263368, 38.836212343], [-77.191785781, 38.833498527], [-77.199176349, 38.829786855], [-77.199066622, 38.828206746], [-77.211219027, 38.82447619], [-77.208601291, 38.815768335], [-77.205823747, 38.814592678], [-77.207052156, 38.81182472], [-77.213306017, 38.811519524], [-77.216696619, 38.808939959], [-77.219034446, 38.80990492], [-77.223057607, 38.806368967], [-77.226131387, 38.806195083], [-77.232087123, 38.807840306], [-77.236802919, 38.820490332], [-77.244281242, 38.822269315], [-77.247108358, 38.826905051], [-77.251820393, 38.828104438], [-77.255068231, 38.83093536], [-77.256232014, 38.834662109], [-77.260651374, 38.835301221], [-77.261988548, 38.838512817], [-77.27090874, 38.838112984], [-77.27244723, 38.836601218], [-77.275900676, 38.838816821], [-77.275391568, 38.841692099], [-77.27929235, 38.843108219]]]}, "properties": {}, "id": 0}]}}